{"type": "FeatureCollection", "features": [ {"type": "Feature", "properties": {"norad_id": 66425, "name": "STARLINK-35555", "group": "last-30-days", "lat": 37.41889476681748, "lon": 154.71738175285236, "alt_km": 411.01458575666584, "timestamp": "2025-12-03T19:33:05.755683+00:00", "meta": {"OBJECT_NAME": "STARLINK-35555", "OBJECT_ID": "2025-259D", "EPOCH": "2025-12-03T12:00:02.998944", "MEAN_MOTION": 15.50954622, "ECCENTRICITY": 0.0001211, "INCLINATION": 43.0002, "RA_OF_ASC_NODE": 101.37, "ARG_OF_PERICENTER": 286.3486, "MEAN_ANOMALY": 178.4332, "EPHEMERIS_TYPE": 0, "CLASSIFICATION_TYPE": "U", "NORAD_CAT_ID": 66425, "ELEMENT_SET_NO": 999, "REV_AT_EPOCH": 479, "BSTAR": -0.021852, "MEAN_MOTION_DOT": -0.01185284, "MEAN_MOTION_DDOT": 0}, "tle": {"line1": "1 66425U 25259D   25337.50003471 -.01185284  00000+0 -21852-1 0  9995", "line2": "2 66425  43.0002 101.3700 0001211 286.3486 178.4332 15.50954622  4795"}}, "geometry": {"type": "Point", "coordinates": [154.71738175285236, 37.41889476681748]}}, {"type": "Feature", "properties": {"norad_id": 66426, "name": "STARLINK-35589", "group": "last-30-days", "lat": 38.178668802624806, "lon": 157.072301404153, "alt_km": 409.6855611770634, "timestamp": "2025-12-03T19:33:05.755694+00:00", "meta": {"OBJECT_NAME": "STARLINK-35589", "OBJECT_ID": "2025-259E", "EPOCH": "2025-12-03T12:00:02.998944", "MEAN_MOTION": 15.50583532, "ECCENTRICITY": 0.0001332, "INCLINATION": 43, "RA_OF_ASC_NODE": 101.3664, "ARG_OF_PERICENTER": 280.9359, "MEAN_ANOMALY": 185.8265, "EPHEMERIS_TYPE": 0, "CLASSIFICATION_TYPE": "U", "NORAD_CAT_ID": 66426, "ELEMENT_SET_NO": 999, "REV_AT_EPOCH": 479, "BSTAR": -0.0003182, "MEAN_MOTION_DOT": -0.00018966, "MEAN_MOTION_DDOT": 0}, "tle": {"line1": "1 66426U 25259E   25337.50003471 -.00018966  00000+0 -31820-3 0  9995", "line2": "2 66426  43.0000 101.3664 0001332 280.9359 185.8265 15.50583532  4791"}}, "geometry": {"type": "Point", "coordinates": [157.072301404153, 38.178668802624806]}}, {"type": "Feature", "properties": {"norad_id": 66427, "name": "STARLINK-35611", "group": "last-30-days", "lat": 38.85861652245623, "lon": 159.36103211889545, "alt_km": 409.7538067836449, "timestamp": "2025-12-03T19:33:05.755704+00:00", "meta": {"OBJECT_NAME": "STARLINK-35611", "OBJECT_ID": "2025-259F", "EPOCH": "2025-12-03T12:00:02.998944", "MEAN_MOTION": 15.50620159, "ECCENTRICITY": 0.0001464, "INCLINATION": 43.0001, "RA_OF_ASC_NODE": 101.3613, "ARG_OF_PERICENTER": 279.99, "MEAN_ANOMALY": 188.6806, "EPHEMERIS_TYPE": 0, "CLASSIFICATION_TYPE": "U", "NORAD_CAT_ID": 66427, "ELEMENT_SET_NO": 999, "REV_AT_EPOCH": 479, "BSTAR": -0.001916, "MEAN_MOTION_DOT": -0.00111323, "MEAN_MOTION_DDOT": 0}, "tle": {"line1": "1 66427U 25259F   25337.50003471 -.00111323  00000+0 -19160-2 0  9999", "line2": "2 66427  43.0001 101.3613 0001464 279.9900 188.6806 15.50620159  4792"}}, "geometry": {"type": "Point", "coordinates": [159.36103211889545, 38.85861652245623]}}, {"type": "Feature", "properties": {"norad_id": 66428, "name": "STARLINK-35610", "group": "last-30-days", "lat": 39.49165762253187, "lon": 161.68916052999933, "alt_km": 409.88511807550003, "timestamp": "2025-12-03T19:33:05.755714+00:00", "meta": {"OBJECT_NAME": "STARLINK-35610", "OBJECT_ID": "2025-259G", "EPOCH": "2025-12-03T12:00:02.998944", "MEAN_MOTION": 15.50592649, "ECCENTRICITY": 0.000162, "INCLINATION": 43.0001, "RA_OF_ASC_NODE": 101.357, "ARG_OF_PERICENTER": 268.2399, "MEAN_ANOMALY": 202.3666, "EPHEMERIS_TYPE": 0, "CLASSIFICATION_TYPE": "U", "NORAD_CAT_ID": 66428, "ELEMENT_SET_NO": 999, "REV_AT_EPOCH": 479, "BSTAR": -0.0013728, "MEAN_MOTION_DOT": -0.00080097, "MEAN_MOTION_DDOT": 0}, "tle": {"line1": "1 66428U 25259G   25337.50003471 -.00080097  00000+0 -13728-2 0  9997", "line2": "2 66428  43.0001 101.3570 0001620 268.2399 202.3666 15.50592649  4792"}}, "geometry": {"type": "Point", "coordinates": [161.68916052999933, 39.49165762253187]}}, {"type": "Feature", "properties": {"norad_id": 66429, "name": "STARLINK-35533", "group": "last-30-days", "lat": 40.07947094845805, "lon": 164.06605034127878, "alt_km": 409.61748669345616, "timestamp": "2025-12-03T19:33:05.755724+00:00", "meta": {"OBJECT_NAME": "STARLINK-35533", "OBJECT_ID": "2025-259H", "EPOCH": "2025-12-03T12:00:02.998944", "MEAN_MOTION": 15.50617229, "ECCENTRICITY": 0.0001451, "INCLINATION": 43, "RA_OF_ASC_NODE": 101.3505, "ARG_OF_PERICENTER": 277.5064, "MEAN_ANOMALY": 195.0023, "EPHEMERIS_TYPE": 0, "CLASSIFICATION_TYPE": "U", "NORAD_CAT_ID": 66429, "ELEMENT_SET_NO": 999, "REV_AT_EPOCH": 479, "BSTAR": -0.0018712, "MEAN_MOTION_DOT": -0.00108755, "MEAN_MOTION_DDOT": 0}, "tle": {"line1": "1 66429U 25259H   25337.50003471 -.00108755  00000+0 -18712-2 0  9998", "line2": "2 66429  43.0000 101.3505 0001451 277.5064 195.0023 15.50617229  4791"}}, "geometry": {"type": "Point", "coordinates": [164.06605034127878, 40.07947094845805]}}, {"type": "Feature", "properties": {"norad_id": 66430, "name": "STARLINK-35470", "group": "last-30-days", "lat": 40.614538138703836, "lon": 166.470863367398, "alt_km": 409.6319509065561, "timestamp": "2025-12-03T19:33:05.755736+00:00", "meta": {"OBJECT_NAME": "STARLINK-35470", "OBJECT_ID": "2025-259J", "EPOCH": "2025-12-03T12:00:02.998944", "MEAN_MOTION": 15.50579934, "ECCENTRICITY": 0.0001507, "INCLINATION": 43, "RA_OF_ASC_NODE": 101.3472, "ARG_OF_PERICENTER": 271.0177, "MEAN_ANOMALY": 203.4247, "EPHEMERIS_TYPE": 0, "CLASSIFICATION_TYPE": "U", "NORAD_CAT_ID": 66430, "ELEMENT_SET_NO": 999, "REV_AT_EPOCH": 479, "BSTAR": -0.00092922, "MEAN_MOTION_DOT": -0.00054478, "MEAN_MOTION_DDOT": 0}, "tle": {"line1": "1 66430U 25259J   25337.50003471 -.00054478  00000+0 -92922-3 0  9998", "line2": "2 66430  43.0000 101.3472 0001507 271.0177 203.4247 15.50579934  4794"}}, "geometry": {"type": "Point", "coordinates": [166.470863367398, 40.614538138703836]}}, {"type": "Feature", "properties": {"norad_id": 66431, "name": "STARLINK-35439", "group": "last-30-days", "lat": 41.10238039646628, "lon": 168.92865750220582, "alt_km": 409.5025589299821, "timestamp": "2025-12-03T19:33:05.755747+00:00", "meta": {"OBJECT_NAME": "STARLINK-35439", "OBJECT_ID": "2025-259K", "EPOCH": "2025-12-03T12:00:02.998944", "MEAN_MOTION": 15.50613538, "ECCENTRICITY": 0.0001402, "INCLINATION": 43, "RA_OF_ASC_NODE": 101.3408, "ARG_OF_PERICENTER": 269.0185, "MEAN_ANOMALY": 207.3276, "EPHEMERIS_TYPE": 0, "CLASSIFICATION_TYPE": "U", "NORAD_CAT_ID": 66431, "ELEMENT_SET_NO": 999, "REV_AT_EPOCH": 479, "BSTAR": -0.0017169, "MEAN_MOTION_DOT": -0.0009991, "MEAN_MOTION_DDOT": 0}, "tle": {"line1": "1 66431U 25259K   25337.50003471 -.00099910  00000+0 -17169-2 0  9998", "line2": "2 66431  43.0000 101.3408 0001402 269.0185 207.3276 15.50613538  4798"}}, "geometry": {"type": "Point", "coordinates": [168.92865750220582, 41.10238039646628]}}, {"type": "Feature", "properties": {"norad_id": 66432, "name": "STARLINK-35446", "group": "last-30-days", "lat": 41.514774558974814, "lon": 171.285105161589, "alt_km": 409.4893599817051, "timestamp": "2025-12-03T19:33:05.755759+00:00", "meta": {"OBJECT_NAME": "STARLINK-35446", "OBJECT_ID": "2025-259L", "EPOCH": "2025-12-03T12:00:02.998944", "MEAN_MOTION": 15.50484405, "ECCENTRICITY": 0.0001598, "INCLINATION": 43.0001, "RA_OF_ASC_NODE": 101.335, "ARG_OF_PERICENTER": 288.7113, "MEAN_ANOMALY": 189.538, "EPHEMERIS_TYPE": 0, "CLASSIFICATION_TYPE": "U", "NORAD_CAT_ID": 66432, "ELEMENT_SET_NO": 999, "REV_AT_EPOCH": 479, "BSTAR": 0.00099883, "MEAN_MOTION_DOT": 0.00058497, "MEAN_MOTION_DDOT": 0}, "tle": {"line1": "1 66432U 25259L   25337.50003471  .00058497  00000+0  99883-3 0  9996", "line2": "2 66432  43.0001 101.3350 0001598 288.7113 189.5380 15.50484405  4797"}}, "geometry": {"type": "Point", "coordinates": [171.285105161589, 41.514774558974814]}}, {"type": "Feature", "properties": {"norad_id": 66433, "name": "STARLINK-35457", "group": "last-30-days", "lat": 41.91281184787448, "lon": 173.922159056903, "alt_km": 409.4209306338116, "timestamp": "2025-12-03T19:33:05.755769+00:00", "meta": {"OBJECT_NAME": "STARLINK-35457", "OBJECT_ID": "2025-259M", "EPOCH": "2025-12-03T12:00:02.998944", "MEAN_MOTION": 15.50577136, "ECCENTRICITY": 0.0001526, "INCLINATION": 42.9999, "RA_OF_ASC_NODE": 101.3321, "ARG_OF_PERICENTER": 280.0064, "MEAN_ANOMALY": 200.1872, "EPHEMERIS_TYPE": 0, "CLASSIFICATION_TYPE": "U", "NORAD_CAT_ID": 66433, "ELEMENT_SET_NO": 999, "REV_AT_EPOCH": 479, "BSTAR": -0.00085045, "MEAN_MOTION_DOT": -0.00049913, "MEAN_MOTION_DDOT": 0}, "tle": {"line1": "1 66433U 25259M   25337.50003471 -.00049913  00000+0 -85045-3 0  9997", "line2": "2 66433  42.9999 101.3321 0001526 280.0064 200.1872 15.50577136  4791"}}, "geometry": {"type": "Point", "coordinates": [173.922159056903, 41.91281184787448]}}, {"type": "Feature", "properties": {"norad_id": 66434, "name": "STARLINK-35389", "group": "last-30-days", "lat": 42.235663246777484, "lon": 176.4635710218081, "alt_km": 409.5100472447093, "timestamp": "2025-12-03T19:33:05.755779+00:00", "meta": {"OBJECT_NAME": "STARLINK-35389", "OBJECT_ID": "2025-259N", "EPOCH": "2025-12-03T12:00:02.998944", "MEAN_MOTION": 15.50584718, "ECCENTRICITY": 0.0001638, "INCLINATION": 43, "RA_OF_ASC_NODE": 101.3276, "ARG_OF_PERICENTER": 267.0864, "MEAN_ANOMALY": 215.0191, "EPHEMERIS_TYPE": 0, "CLASSIFICATION_TYPE": "U", "NORAD_CAT_ID": 66434, "ELEMENT_SET_NO": 999, "REV_AT_EPOCH": 479, "BSTAR": -0.00094009, "MEAN_MOTION_DOT": -0.00055117, "MEAN_MOTION_DDOT": 0}, "tle": {"line1": "1 66434U 25259N   25337.50003471 -.00055117  00000+0 -94009-3 0  9991", "line2": "2 66434  43.0000 101.3276 0001638 267.0864 215.0191 15.50584718  4796"}}, "geometry": {"type": "Point", "coordinates": [176.4635710218081, 42.235663246777484]}}]}